STARLINK-31278          
1 59163U 24044M   24339.57230521 -.00004399  00000+0 -15902-3 0  9990
2 59163  43.0021 184.0685 0002983 283.9983  76.0536 15.25779120 43218
STARLINK-31309          
1 59164U 24044N   24339.30857233 -.00000166  00000+0  35101-5 0  9999
2 59164  43.0025 185.5247 0001027 256.5694 103.5042 15.25905897 43205
STARLINK-31325          
1 59165U 24044P   24339.30630425  .00001356  00000+0  61676-4 0  9998
2 59165  43.0010 185.5092 0001716 270.6233  89.4421 15.25916963 43174
STARLINK-31342          
1 59166U 24044Q   24339.30406252 -.00001083  00000+0 -31559-4 0  9994
2 59166  43.0013 185.4871 0001300 249.5589 110.5122 15.25897784 43207
STARLINK-31298          
1 59167U 24044R   24339.30179051 -.00000580  00000+0 -12352-4 0  9990
2 59167  42.9985 185.4687 0000368  87.5010 272.5883 15.25904810 43179
STARLINK-31322          
1 59168U 24044S   24339.59704660 -.00000159  00000+0  37748-5 0  9990
2 59168  42.9979 183.3769 0001033 258.9996 101.0738 15.25906783 43253
STARLINK-31329          
1 59169U 24044T   24339.60194357 -.00002648  00000+0 -91470-4 0  9996
2 59169  43.0005 183.4090 0000573 310.7260  49.3541 15.25897040 43221
STARLINK-31340          
1 59170U 24044U   24339.52438763  .00001232  00000+0  36755-4 0  9992
2 59170  43.0022 159.4960 0001366 275.4482  84.6219 15.40691604 43493
STARLINK-31344          
1 59171U 24044V   24339.27237501  .00000354  00000+0  23385-4 0  9991
2 59171  42.9988 185.2372 0000985 260.8870  99.1870 15.25912399 43205
STARLINK-31348          
1 59172U 24044W   24339.52713069  .00000418  00000+0  17285-4 0  9991
2 59172  43.0000 150.8489 0002081 267.2383  92.8235 15.40696368 43598
STARLINK-31289          
1 59173U 24044X   24339.61556353 -.00007991  00000+0 -29659-3 0  9995
2 59173  43.0002 183.5045 0000510 279.9615  80.1178 15.25844950 43259
STARLINK-31283          
1 59174U 24044Y   24339.58334491  .00028499  00000+0  68782-3 0  9993
2 59174  42.9995 150.7671 0001487 259.5672 313.1366 15.40661456  5892
EXO-0                   
1 59175U 23174DK  24339.44474546  .00014010  00000+0  61528-3 0  9993
2 59175  97.4401  51.3585 0011529 358.3563   1.7633 15.21982404 59530
STARLINK-31439          
1 59178U 24045A   24338.85836752 -.00001569  00000+0 -30292-4 0  9991
2 59178  43.0024 183.6986 0001407 262.1721  97.8976 15.40699873 42586
STARLINK-31410          
1 59179U 24045B   24339.60494133  .00000014  00000+0  75959-5 0  9991
2 59179  43.0020 178.9765 0001876 275.1512  84.9131 15.40698717 42707
STARLINK-31395          
1 59180U 24045C   24339.26960657  .00000750  00000+0  25219-4 0  9994
2 59180  43.0004 180.7568 0001319 270.4098  89.6607 15.40691518 42658
STARLINK-31486          
1 59181U 24045D   24337.88145155 -.00003468  00000+0 -75752-4 0  9997
2 59181  43.0003 189.2662 0002310 270.7916  89.2676 15.40710342 42436
STARLINK-31411          
1 59182U 24045E   24339.56028840 -.00000390  00000+0 -20588-5 0  9995
2 59182  43.0029 179.5040 0002345 268.9831  91.0757 15.40688629 42691
STARLINK-31347          
1 59183U 24045F   24339.56718597  .00145962  00000+0  13953-2 0  9999
2 59183  42.9977 169.0415 0007743 296.1295  63.8773 15.65466579 42810
STARLINK-31382          
1 59184U 24045G   24339.60046541 -.00000135  00000+0  40486-5 0  9995
2 59184  43.0023 178.9411 0002299 265.2122  94.8472 15.40691380 42708
STARLINK-31394          
1 59185U 24045H   24339.58688197  .00003684  00000+0  95420-4 0  9990
2 59185  42.9960 177.9888 0002238 274.2239  85.8361 15.40697688 42711
STARLINK-31403          
1 59186U 24045J   24339.54775372 -.00002086  00000+0 -42704-4 0  9993
2 59186  42.9988 163.6242 0002290 279.5818  80.4780 15.40678373 42814
STARLINK-31514          
1 59187U 24045K   24339.60268357  .00003240  00000+0  84795-4 0  9998
2 59187  43.0082 178.9520 0003195 262.3083  97.7411 15.40708331 42707
STARLINK-31478          
1 59188U 24045L   24339.61600313 -.00007360  00000+0 -16904-3 0  9997
2 59188  42.9970 178.1870 0002385 274.9570  85.1014 15.40706119 42715
STARLINK-31498          
1 59189U 24045M   24339.25391784  .00000813  00000+0  26728-4 0  9997
2 59189  43.0002 180.6333 0001557 259.1530 100.9152 15.40701483 42658
STARLINK-31563          
1 59190U 24045N   24338.97233704  .00000522  00000+0  19752-4 0  9990
2 59190  42.9992 182.8283 0001351 257.5252 102.5453 15.40701390 42603
STARLINK-31551          
1 59191U 24045P   24339.62285663 -.00002799  00000+0 -59701-4 0  9993
2 59191  43.0007 179.1096 0002077 256.3130 103.7495 15.40721904 42705
STARLINK-31536          
1 59192U 24045Q   24339.58334491  .00024683  00000+0  59692-3 0  9995
2 59192  42.9992 178.3998 0001981 266.9626 259.3083 15.40664826  5898
STARLINK-31548          
1 59193U 24045R   24339.59599444  .00012466  00000+0  30581-3 0  9990
2 59193  42.9994 178.9050 0001914 265.3473  94.7165 15.40638098 42700
STARLINK-31542          
1 59194U 24045S   24338.98129756 -.00000851  00000+0 -13091-4 0  9993
2 59194  42.9981 182.8998 0002283 257.2021 102.8581 15.40705973 42600
