OBJECT_NAME,OBJECT_ID,EPOCH,MEAN_MOTION,ECCENTRICITY,INCLINATION,RA_OF_ASC_NODE,ARG_OF_PERICENTER,MEAN_ANOMALY,EPHEMERIS_TYPE,CLASSIFICATION_TYPE,NORAD_CAT_ID,ELEMENT_SET_NO,REV_AT_EPOCH,BSTAR,MEAN_MOTION_DOT,MEAN_MOTION_DDOT
STARLINK-31278,2024-044M,2024-12-04T13:44:07.170144,15.25779120,.0002983,43.0021,184.0685,283.9983,76.0536,0,U,59163,999,4321,-.15902E-3,-.4399E-4,0
STARLINK-31309,2024-044N,2024-12-04T07:24:20.649312,15.25905897,.0001027,43.0025,185.5247,256.5694,103.5042,0,U,59164,999,4320,.35101E-5,-.166E-5,0
STARLINK-31325,2024-044P,2024-12-04T07:21:04.687200,15.25916963,.0001716,43.0010,185.5092,270.6233,89.4421,0,U,59165,999,4317,.61676E-4,.1356E-4,0
STARLINK-31342,2024-044Q,2024-12-04T07:17:51.001728,15.25897784,.00013,43.0013,185.4871,249.5589,110.5122,0,U,59166,999,4320,-.31559E-4,-.1083E-4,0
STARLINK-31298,2024-044R,2024-12-04T07:14:34.700064,15.25904810,.0000368,42.9985,185.4687,87.5010,272.5883,0,U,59167,999,4317,-.12352E-4,-.58E-5,0
STARLINK-31322,2024-044S,2024-12-04T14:19:44.826240,15.25906783,.0001033,42.9979,183.3769,258.9996,101.0738,0,U,59168,999,4325,.37748E-5,-.159E-5,0
STARLINK-31329,2024-044T,2024-12-04T14:26:47.924448,15.25897040,.0000573,43.0005,183.4090,310.7260,49.3541,0,U,59169,999,4322,-.9147E-4,-.2648E-4,0
STARLINK-31340,2024-044U,2024-12-04T12:35:07.091232,15.40691604,.0001366,43.0022,159.4960,275.4482,84.6219,0,U,59170,999,4349,.36755E-4,.1232E-4,0
STARLINK-31344,2024-044V,2024-12-04T06:32:13.200864,15.25912399,.0000985,42.9988,185.2372,260.8870,99.1870,0,U,59171,999,4320,.23385E-4,.354E-5,0
STARLINK-31348,2024-044W,2024-12-04T12:39:04.091616,15.40696368,.0002081,43.0000,150.8489,267.2383,92.8235,0,U,59172,999,4359,.17285E-4,.418E-5,0
STARLINK-31289,2024-044X,2024-12-04T14:46:24.688992,15.25844950,.000051,43.0002,183.5045,279.9615,80.1178,0,U,59173,999,4325,-.29659E-3,-.7991E-4,0
STARLINK-31283,2024-044Y,2024-12-04T14:00:01.000224,15.40661456,.0001487,42.9995,150.7671,259.5672,313.1366,0,U,59174,999,589,.68782E-3,.28499E-3,0
EXO-0,2023-174DK,2024-12-04T10:40:26.007744,15.21982404,.0011529,97.4401,51.3585,358.3563,1.7633,0,U,59175,999,5953,.61528E-3,.1401E-3,0
STARLINK-31439,2024-045A,2024-12-03T20:36:02.953728,15.40699873,.0001407,43.0024,183.6986,262.1721,97.8976,0,U,59178,999,4258,-.30292E-4,-.1569E-4,0
STARLINK-31410,2024-045B,2024-12-04T14:31:06.930912,15.40698717,.0001876,43.0020,178.9765,275.1512,84.9131,0,U,59179,999,4270,.75959E-5,.14E-6,0
STARLINK-31395,2024-045C,2024-12-04T06:28:14.007648,15.40691518,.0001319,43.0004,180.7568,270.4098,89.6607,0,U,59180,999,4265,.25219E-4,.75E-5,0
STARLINK-31486,2024-045D,2024-12-02T21:09:17.413920,15.40710342,.000231,43.0003,189.2662,270.7916,89.2676,0,U,59181,999,4243,-.75752E-4,-.3468E-4,0
STARLINK-31411,2024-045E,2024-12-04T13:26:48.917760,15.40688629,.0002345,43.0029,179.5040,268.9831,91.0757,0,U,59182,999,4269,-.20588E-5,-.39E-5,0
STARLINK-31347,2024-045F,2024-12-04T13:36:44.867808,15.65466579,.0007743,42.9977,169.0415,296.1295,63.8773,0,U,59183,999,4281,.13953E-2,.145962E-2,0
STARLINK-31382,2024-045G,2024-12-04T14:24:40.211424,15.40691380,.0002299,43.0023,178.9411,265.2122,94.8472,0,U,59184,999,4270,.40486E-5,-.135E-5,0
STARLINK-31394,2024-045H,2024-12-04T14:05:06.602208,15.40697688,.0002238,42.9960,177.9888,274.2239,85.8361,0,U,59185,999,4271,.9542E-4,.3684E-4,0
STARLINK-31403,2024-045J,2024-12-04T13:08:45.921408,15.40678373,.000229,42.9988,163.6242,279.5818,80.4780,0,U,59186,999,4281,-.42704E-4,-.2086E-4,0
STARLINK-31514,2024-045K,2024-12-04T14:27:51.860448,15.40708331,.0003195,43.0082,178.9520,262.3083,97.7411,0,U,59187,999,4270,.84795E-4,.324E-4,0
STARLINK-31478,2024-045L,2024-12-04T14:47:02.670432,15.40706119,.0002385,42.9970,178.1870,274.9570,85.1014,0,U,59188,999,4271,-.16904E-3,-.736E-4,0
STARLINK-31498,2024-045M,2024-12-04T06:05:38.501376,15.40701483,.0001557,43.0002,180.6333,259.1530,100.9152,0,U,59189,999,4265,.26728E-4,.813E-5,0
STARLINK-31563,2024-045N,2024-12-03T23:20:09.920256,15.40701390,.0001351,42.9992,182.8283,257.5252,102.5453,0,U,59190,999,4260,.19752E-4,.522E-5,0
STARLINK-31551,2024-045P,2024-12-04T14:56:54.812832,15.40721904,.0002077,43.0007,179.1096,256.3130,103.7495,0,U,59191,999,4270,-.59701E-4,-.2799E-4,0
STARLINK-31536,2024-045Q,2024-12-04T14:00:01.000224,15.40664826,.0001981,42.9992,178.3998,266.9626,259.3083,0,U,59192,999,589,.59692E-3,.24683E-3,0
STARLINK-31548,2024-045R,2024-12-04T14:18:13.919616,15.40638098,.0001914,42.9994,178.9050,265.3473,94.7165,0,U,59193,999,4270,.30581E-3,.12466E-3,0
STARLINK-31542,2024-045S,2024-12-03T23:33:04.109184,15.40705973,.0002283,42.9981,182.8998,257.2021,102.8581,0,U,59194,999,4260,-.13091E-4,-.851E-5,0
